ExtractDate,OrganisationURI,OrganisationLabel,ServiceTypeURI,ServiceTypeLabel,Site name,Address Line 1,Address Line 2,Address Line 3,Postcode,Latitude,Longitude,Site Type,Provder,Ward,ONSRef,Site Status
16/07/2015,http://opendatacommunities.org/id/metropolitan-district-council/leeds,Leeds,http://id.esd.org.uk/subject/7691,Wireless Technology,2 Great George Street,Great George Street,,Leeds,LS2 3AD,53.80116,-1.54549,One Stop Centre,Leeds City Council,City and Hunslet,http://statistics.data.gov.uk/id/statistical-geography/E05001420,LIVE
16/07/2015,http://opendatacommunities.org/id/metropolitan-district-council/leeds,Leeds,http://id.esd.org.uk/subject/7691,Wireless Technology,Abbey House Museum,Abbey Walk ,Kirkstall,Leeds,LS5 3EH,53.82225,-1.60728,Museum,Leeds City Council,Kirkstall,http://statistics.data.gov.uk/id/statistical-geography/E05001432,LIVE
16/07/2015,http://opendatacommunities.org/id/metropolitan-district-council/leeds,Leeds,http://id.esd.org.uk/subject/7691,Wireless Technology,Allerton Bywater Welfare Hall,30-38 Station Road,Kippax,Wakefield,WF10 2BP,53.7433,-1.35839,Community Centre,Leeds City Council,Kippax and Methley,http://statistics.data.gov.uk/id/statistical-geography/E05001431,Unable to have wifi
16/07/2015,http://opendatacommunities.org/id/metropolitan-district-council/leeds,Leeds,http://id.esd.org.uk/subject/7691,Wireless Technology,Ardsley & Tingley,213a Bradford Road,Tingley ,Wakefield,WF3 2DL,53.72552,-1.5508,Library,Leeds City Council,Ardsley and Robin Hood,http://statistics.data.gov.uk/id/statistical-geography/E05001413,LIVE
16/07/2015,http://opendatacommunities.org/id/metropolitan-district-council/leeds,Leeds,http://id.esd.org.uk/subject/7691,Wireless Technology,Armley,Carr Crofts ,Armley,Leeds,LS12 3HB,53.79513,-1.59181,Leisure Centre,Leeds City Council,Armley,http://statistics.data.gov.uk/id/statistical-geography/E05001414,LIVE
16/07/2015,http://opendatacommunities.org/id/metropolitan-district-council/leeds,Leeds,http://id.esd.org.uk/subject/7691,Wireless Technology,Armley,2 Stockshill,Armley,Leeds,LS12 1UL,53.79719,-1.58821,Library,Leeds City Council,Armley,http://statistics.data.gov.uk/id/statistical-geography/E05001414,LIVE
16/07/2015,http://opendatacommunities.org/id/metropolitan-district-council/leeds,Leeds,http://id.esd.org.uk/subject/7691,Wireless Technology,Armley,2 Stocks Hill,Armley,Leeds,LS12 1UQ,53.79717,-1.58839,One Stop Centre,Leeds City Council,Armley,http://statistics.data.gov.uk/id/statistical-geography/E05001414,LIVE
16/07/2015,http://opendatacommunities.org/id/metropolitan-district-council/leeds,Leeds,http://id.esd.org.uk/subject/7691,Wireless Technology,Armley Lazer Centre,Lenhurst Avenue ,Armley,Leeds,LS12 2RE,53.81021,-1.60628,Activity Centre,Leeds City Council,Armley,http://statistics.data.gov.uk/id/statistical-geography/E05001414,LIVE
16/07/2015,http://opendatacommunities.org/id/metropolitan-district-council/leeds,Leeds,http://id.esd.org.uk/subject/7691,Wireless Technology,Armley Mills Industrial Museum,Canel Road,Armley,Leeds,LS12 2QF,53.8019,-1.58129,Museum,Leeds City Council,Armley,http://statistics.data.gov.uk/id/statistical-geography/E05001414,LIVE
16/07/2015,http://opendatacommunities.org/id/metropolitan-district-council/leeds,Leeds,http://id.esd.org.uk/subject/7691,Wireless Technology,Armley Moor Children's Centre,95 Town Street,Armley,Leeds,LS12 3HD,53.79621,-1.59402,Childrens Centre,Leeds City Council,Armley,http://statistics.data.gov.uk/id/statistical-geography/E05001414,LIVE
16/07/2015,http://opendatacommunities.org/id/metropolitan-district-council/leeds,Leeds,http://id.esd.org.uk/subject/7691,Wireless Technology,Beeston,"Units 5-6, District Centre",Town Street,Leeds,LS11 8PN,53.77253,-1.56672,Library,Leeds City Council,Beeston and Holbeck,http://statistics.data.gov.uk/id/statistical-geography/E05001415,LIVE
16/07/2015,http://opendatacommunities.org/id/metropolitan-district-council/leeds,Leeds,http://id.esd.org.uk/subject/7691,Wireless Technology,Boston Spa,High Street,Wetherby,Leeds,LS23 6BH,53.90529,-1.34636,Library,Leeds City Council,Wetherby,http://statistics.data.gov.uk/id/statistical-geography/E05001443,LIVE
16/07/2015,http://opendatacommunities.org/id/metropolitan-district-council/leeds,Leeds,http://id.esd.org.uk/subject/7691,Wireless Technology,Boston Spa Childrens Centre,Deepdale Lane,Wetherby,Leeds,LS23 6EH,53.9091,-1.36091,Childrens Centre,Leeds City Council,Wetherby,http://statistics.data.gov.uk/id/statistical-geography/E05001443,LIVE
16/07/2015,http://opendatacommunities.org/id/metropolitan-district-council/leeds,Leeds,http://id.esd.org.uk/subject/7691,Wireless Technology,Bramley,Hough Lane,Bramley,Leeds,LS13 3ND,53.81049,-1.63009,Library,Leeds City Council,Bramley and Stanningley,http://statistics.data.gov.uk/id/statistical-geography/E05001416,LIVE
16/07/2015,http://opendatacommunities.org/id/metropolitan-district-council/leeds,Leeds,http://id.esd.org.uk/subject/7691,Wireless Technology,Bramley Children's Centre,Fairfield Street,Bramley,Leeds,LS13 3DT,53.80833,-1.6406,Childrens Centre,Leeds City Council,Bramley and Stanningley,http://statistics.data.gov.uk/id/statistical-geography/E05001416,LIVE
16/07/2015,http://opendatacommunities.org/id/metropolitan-district-council/leeds,Leeds,http://id.esd.org.uk/subject/7691,Wireless Technology,Bramley Children's Centre under 3's,Fairfield Street,Bramley,Leeds,LS13 3DT,53.80833,-1.6406,Childrens Centre,Leeds City Council,Bramley and Stanningley,http://statistics.data.gov.uk/id/statistical-geography/E05001416,LIVE
16/07/2015,http://opendatacommunities.org/id/metropolitan-district-council/leeds,Leeds,http://id.esd.org.uk/subject/7691,Wireless Technology,Bridge End Telephone Box,Bridge End,,Leeds,LS1 7HG,53.79415,-1.54193,Blue Telephone Box,AQL,City and Hunslet,http://statistics.data.gov.uk/id/statistical-geography/E05001420,LIVE
16/07/2015,http://opendatacommunities.org/id/metropolitan-district-council/leeds,Leeds,http://id.esd.org.uk/subject/7691,Wireless Technology,Briggate Street,Briggate,,Leeds,LS1 6LS,53.7968,-1.5424,Open Air,Leeds City Council,City and Hunslet,http://statistics.data.gov.uk/id/statistical-geography/E05001420,LIVE
16/07/2015,http://opendatacommunities.org/id/metropolitan-district-council/leeds,Leeds,http://id.esd.org.uk/subject/7691,Wireless Technology,Burley,Cardigan Road,Burley,Leeds,LS6 1QL,53.80793,-1.57505,Library,Leeds City Council,Hyde Park and Woodhouse,http://statistics.data.gov.uk/id/statistical-geography/E05001429,LIVE
16/07/2015,http://opendatacommunities.org/id/metropolitan-district-council/leeds,Leeds,http://id.esd.org.uk/subject/7691,Wireless Technology,Burley Park Children's Centre,Saint Matthias Street,Burley,Leeds,LS4 2DZ,53.80607,-1.57935,Childrens Centre,Leeds City Council,Kirkstall,http://statistics.data.gov.uk/id/statistical-geography/E05001432,LIVE
16/07/2015,http://opendatacommunities.org/id/metropolitan-district-council/leeds,Leeds,http://id.esd.org.uk/subject/7691,Wireless Technology,Calverley,Thornhill Street,Calverley,Leeds,LS28 5PD,53.82924,-1.68717,Library,Leeds City Council,Calverley and Farsley,http://statistics.data.gov.uk/id/statistical-geography/E05001418,LIVE
16/07/2015,http://opendatacommunities.org/id/metropolitan-district-council/leeds,Leeds,http://id.esd.org.uk/subject/7691,Wireless Technology,Calverley Mechanics Institute,Thornhill Street,Pudsey,Leeds,LS28 5NQ,53.82902,-1.6872,Community Centre,Leeds City Council,Calverley and Farsley,http://statistics.data.gov.uk/id/statistical-geography/E05001418,Unable to have wifi
16/07/2015,http://opendatacommunities.org/id/metropolitan-district-council/leeds,Leeds,http://id.esd.org.uk/subject/7691,Wireless Technology,Carriagworks,The Electric Press,3 Millenium Square,Leeds,LS2 3AD,53.80118,-1.54817,Activity Centre,Leeds City Council,City and Hunslet,http://statistics.data.gov.uk/id/statistical-geography/E05001420,LIVE
16/07/2015,http://opendatacommunities.org/id/metropolitan-district-council/leeds,Leeds,http://id.esd.org.uk/subject/7691,Wireless Technology,Central Library,The Headrow,Calverley Street,Leeds,LS1 3AB,53.80024,-1.54872,Library,Leeds City Council,City and Hunslet,http://statistics.data.gov.uk/id/statistical-geography/E05001420,LIVE
16/07/2015,http://opendatacommunities.org/id/metropolitan-district-council/leeds,Leeds,http://id.esd.org.uk/subject/7691,Wireless Technology,Chapel Allerton,106 Harrogate Road,Chapel Allerton,Leeds,LS7 4LZ,53.82867,-1.53747,Library,Leeds City Council,Chapel Allerton,http://statistics.data.gov.uk/id/statistical-geography/E05001419,LIVE
16/07/2015,http://opendatacommunities.org/id/metropolitan-district-council/leeds,Leeds,http://id.esd.org.uk/subject/7691,Wireless Technology,Chapel Allerton Children's Centre,Blake Grove ,Chapel Allerton,Leeds,LS7 3LT,53.82558,-1.53605,Childrens Centre,Leeds City Council,Chapel Allerton,http://statistics.data.gov.uk/id/statistical-geography/E05001419,LIVE
16/07/2015,http://opendatacommunities.org/id/metropolitan-district-council/leeds,Leeds,http://id.esd.org.uk/subject/7691,Wireless Technology,Chapeltown,The Reginald Centre,263 Chapeltown Road,Leeds,LS7 3EX,53.81776,-1.5319,Library,Leeds City Council,Chapel Allerton,http://statistics.data.gov.uk/id/statistical-geography/E05001419,LIVE
16/07/2015,http://opendatacommunities.org/id/metropolitan-district-council/leeds,Leeds,http://id.esd.org.uk/subject/7691,Wireless Technology,Chapeltown Children's Centre,62 Leopold Street,Chapeltown,Leeds,LS7 4AW,53.81225,-1.5315,Childrens Centre,Leeds City Council,Chapel Allerton,http://statistics.data.gov.uk/id/statistical-geography/E05001419,LIVE
16/07/2015,http://opendatacommunities.org/id/metropolitan-district-council/leeds,Leeds,http://id.esd.org.uk/subject/7691,Wireless Technology,City Centre Art Gallery,The Headrow,Calverley Street,Leeds,LS1 3AA,53.8002,-1.54811,Art Gallery,Leeds City Council,City and Hunslet,http://statistics.data.gov.uk/id/statistical-geography/E05001420,LIVE
16/07/2015,http://opendatacommunities.org/id/metropolitan-district-council/leeds,Leeds,http://id.esd.org.uk/subject/7691,Wireless Technology,Compton Road,The Compton Centre,Harehills Lane,Leeds,LS9 7BG,53.80908,-1.50968,Library,Leeds City Council,Gipton and Harehills,http://statistics.data.gov.uk/id/statistical-geography/E05001424,LIVE
16/07/2015,http://opendatacommunities.org/id/metropolitan-district-council/leeds,Leeds,http://id.esd.org.uk/subject/7691,Wireless Technology,Cottingley Children's Centre/Springwell CC,Cottingley Drive,Cottingley,Leeds,LS11 0JP,53.7682,-1.58176,Childrens Centre,Leeds City Council,Beeston and Holbeck,http://statistics.data.gov.uk/id/statistical-geography/E05001415,LIVE
16/07/2015,http://opendatacommunities.org/id/metropolitan-district-council/leeds,Leeds,http://id.esd.org.uk/subject/7691,Wireless Technology,Cross Gates,Farm Road,Cross Gates,Leeds,LS15 7LB,53.80747,-1.45305,Library,Leeds City Council,Killingbeck and Seacroft,http://statistics.data.gov.uk/id/statistical-geography/E05001430,LIVE
16/07/2015,http://opendatacommunities.org/id/metropolitan-district-council/leeds,Leeds,http://id.esd.org.uk/subject/7691,Wireless Technology,Dewsbury Road,190 Dewsbury Road,Hunslet,Leeds,LS11 6PF,53.77918,-1.54522,Library,Leeds City Council,City and Hunslet,http://statistics.data.gov.uk/id/statistical-geography/E05001420,LIVE
16/07/2015,http://opendatacommunities.org/id/metropolitan-district-council/leeds,Leeds,http://id.esd.org.uk/subject/7691,Wireless Technology,Dewsbury Road,190 Dewsbury Road,Hunslet,Leeds,LS11 6PF,53.77918,-1.54522,One Stop Centre,Leeds City Council,City and Hunslet,http://statistics.data.gov.uk/id/statistical-geography/E05001420,LIVE
16/07/2015,http://opendatacommunities.org/id/metropolitan-district-council/leeds,Leeds,http://id.esd.org.uk/subject/7691,Wireless Technology,Farsley,Old Road,Farsley,Leeds,LS28 5DH,53.81022,-1.67297,Library,Leeds City Council,Calverley and Farsley,http://statistics.data.gov.uk/id/statistical-geography/E05001418,LIVE
16/07/2015,http://opendatacommunities.org/id/metropolitan-district-council/leeds,Leeds,http://id.esd.org.uk/subject/7691,Wireless Technology,Fearnville,Oakwood Lane,Fearnville,Leeds,LS8 3LF,53.81488,-1.48858,Leisure Centre,Leeds City Council,Gipton and Harehills,http://statistics.data.gov.uk/id/statistical-geography/E05001424,LIVE
16/07/2015,http://opendatacommunities.org/id/metropolitan-district-council/leeds,Leeds,http://id.esd.org.uk/subject/7691,Wireless Technology,Garforth,1-5 Main Street,Garforth ,Leeds,LS25 1DU,53.79203,-1.38791,Library,Leeds City Council,Garforth and Swillington,http://statistics.data.gov.uk/id/statistical-geography/E05001423,LIVE
16/07/2015,http://opendatacommunities.org/id/metropolitan-district-council/leeds,Leeds,http://id.esd.org.uk/subject/7691,Wireless Technology,Garforth,Lidgett Lane ,Garforth ,Leeds,LS25 1EH,53.7919,-1.38814,One Stop Centre,Leeds City Council,Garforth and Swillington,http://statistics.data.gov.uk/id/statistical-geography/E05001423,LIVE
16/07/2015,http://opendatacommunities.org/id/metropolitan-district-council/leeds,Leeds,http://id.esd.org.uk/subject/7691,Wireless Technology,Garforth,Ninelands Lane,Garforth ,Leeds,LS25 1NX,53.79127,-1.3758,Leisure Centre,Leeds City Council,Garforth and Swillington,http://statistics.data.gov.uk/id/statistical-geography/E05001423,LIVE
16/07/2015,http://opendatacommunities.org/id/metropolitan-district-council/leeds,Leeds,http://id.esd.org.uk/subject/7691,Wireless Technology,Gildersome,Town Street,Gildersome,Leeds,LS27 7AB,53.75821,-1.62883,Library,Leeds City Council,Morley North,http://statistics.data.gov.uk/id/statistical-geography/E05001435,LIVE
16/07/2015,http://opendatacommunities.org/id/metropolitan-district-council/leeds,Leeds,http://id.esd.org.uk/subject/7691,Wireless Technology,Gipton North Children's Centre,Thorn Walk,Gipton ,Leeds,LS8 3LP,53.8144,-1.49802,Childrens Centre,Leeds City Council,Gipton and Harehills,http://statistics.data.gov.uk/id/statistical-geography/E05001424,LIVE
16/07/2015,http://opendatacommunities.org/id/metropolitan-district-council/leeds,Leeds,http://id.esd.org.uk/subject/7691,Wireless Technology,Gipton South Children's Centre,Coldcotes Grove,Gipton ,Leeds,LS9 6QJ,53.80705,-1.49064,Childrens Centre,Leeds City Council,Gipton and Harehills,http://statistics.data.gov.uk/id/statistical-geography/E05001424,LIVE
16/07/2015,http://opendatacommunities.org/id/metropolitan-district-council/leeds,Leeds,http://id.esd.org.uk/subject/7691,Wireless Technology,Guiseley,Otley Road,Guisley,Leeds,LS20 8AH,53.87309,-1.71038,Library,Leeds City Council,Guiseley and Rawdon,http://statistics.data.gov.uk/id/statistical-geography/E05001425,LIVE
16/07/2015,http://opendatacommunities.org/id/metropolitan-district-council/leeds,Leeds,http://id.esd.org.uk/subject/7691,Wireless Technology,Halton,273 Seby Road,Halton ,Leeds,LS15 7JR,53.79652,-1.46889,Library,Leeds City Council,Temple Newsam,http://statistics.data.gov.uk/id/statistical-geography/E05001441,LIVE
16/07/2015,http://opendatacommunities.org/id/metropolitan-district-council/leeds,Leeds,http://id.esd.org.uk/subject/7691,Wireless Technology,Harehills Children's Centre,Cowper Terrace,Harehills,Leeds,LS9 7BA,53.80904,-1.51048,Childrens Centre,Leeds City Council,Gipton and Harehills,http://statistics.data.gov.uk/id/statistical-geography/E05001424,LIVE
16/07/2015,http://opendatacommunities.org/id/metropolitan-district-council/leeds,Leeds,http://id.esd.org.uk/subject/7691,Wireless Technology,Hawksworth Wood Children's Centre,Broadway,Hawksworth,Leeds,LS5 3PS,53.8314,-1.6166,Childrens Centre,Leeds City Council,Kirkstall,http://statistics.data.gov.uk/id/statistical-geography/E05001432,LIVE
16/07/2015,http://opendatacommunities.org/id/metropolitan-district-council/leeds,Leeds,http://id.esd.org.uk/subject/7691,Wireless Technology,Headingley,North Lane,Headingley,Leeds,LS6 3HG,53.82104,-1.57833,Library,Leeds City Council,Headingley,http://statistics.data.gov.uk/id/statistical-geography/E05001427,LIVE
16/07/2015,http://opendatacommunities.org/id/metropolitan-district-council/leeds,Leeds,http://id.esd.org.uk/subject/7691,Wireless Technology,Herd Farm Activity Centre,Eccup Reservoir,Harrogate Road,Leeds,LS17 7RJ,53.8749,-1.52959,Activity Centre,Leeds City Council,Alwoodley,http://statistics.data.gov.uk/id/statistical-geography/E05001412,LIVE
16/07/2015,http://opendatacommunities.org/id/metropolitan-district-council/leeds,Leeds,http://id.esd.org.uk/subject/7691,Wireless Technology,Holt Park,Holtdale Approach,Holt Park,Leeds,LS16 7RX,53.85479,-1.60954,Leisure Centre,Leeds City Council,Adel and Wharfedale,http://statistics.data.gov.uk/id/statistical-geography/E05001411,LIVE
16/07/2015,http://opendatacommunities.org/id/metropolitan-district-council/leeds,Leeds,http://id.esd.org.uk/subject/7691,Wireless Technology,Holt Park,Ralph Thoresby High School,Holtdale Approach,Leeds,LS16 7RX,53.85479,-1.60954,Library,Leeds City Council,Adel and Wharfedale,http://statistics.data.gov.uk/id/statistical-geography/E05001411,LIVE
16/07/2015,http://opendatacommunities.org/id/metropolitan-district-council/leeds,Leeds,http://id.esd.org.uk/subject/7691,Wireless Technology,Horsforth,Town Street,Horsforth,Leeds,LS18 5BL,53.83986,-1.63766,Library,Leeds City Council,Horsforth,http://statistics.data.gov.uk/id/statistical-geography/E05001428,LIVE
16/07/2015,http://opendatacommunities.org/id/metropolitan-district-council/leeds,Leeds,http://id.esd.org.uk/subject/7691,Wireless Technology,Hunslet,Waterloo Road,Hunslet,Leeds,LS10 2NS,53.7795,-1.52756,Library,Leeds City Council,City and Hunslet,http://statistics.data.gov.uk/id/statistical-geography/E05001420,LIVE
16/07/2015,http://opendatacommunities.org/id/metropolitan-district-council/leeds,Leeds,http://id.esd.org.uk/subject/7691,Wireless Technology,Hunslet Children's Centre,Co Hunslet St Marys Primary School,Church Street,Leeds,LS10 2QY,53.77872,-1.52767,Childrens Centre,Leeds City Council,City and Hunslet,http://statistics.data.gov.uk/id/statistical-geography/E05001420,LIVE
16/07/2015,http://opendatacommunities.org/id/metropolitan-district-council/leeds,Leeds,http://id.esd.org.uk/subject/7691,Wireless Technology,John Charles,Middleton Grove ,Middleton Park,Leeds,LS11 5DJ,53.76456,-1.54283,Leisure Centre,Leeds City Council,Middleton Park,http://statistics.data.gov.uk/id/statistical-geography/E05001433,LIVE
16/07/2015,http://opendatacommunities.org/id/metropolitan-district-council/leeds,Leeds,http://id.esd.org.uk/subject/7691,Wireless Technology,John Smeaton,Smeaton Approach off Barwick Road,Crossgates,Leeds,LS15 8TA,53.81327,-1.43408,Leisure Centre,Leeds City Council,Cross Gates and Whinmoor,http://statistics.data.gov.uk/id/statistical-geography/E05001421,LIVE
16/07/2015,http://opendatacommunities.org/id/metropolitan-district-council/leeds,Leeds,http://id.esd.org.uk/subject/7691,Wireless Technology,Kentmere Children's Centre,Kentmere Avenue,Seacroft,Leeds,LS14 1BN,53.8282,-1.47107,Childrens Centre,Leeds City Council,Killingbeck and Seacroft,http://statistics.data.gov.uk/id/statistical-geography/E05001430,LIVE
16/07/2015,http://opendatacommunities.org/id/metropolitan-district-council/leeds,Leeds,http://id.esd.org.uk/subject/7691,Wireless Technology,Kippax,Station Road,Kippax,Leeds,LS25 7LQ,53.76381,-1.37979,Leisure Centre,Leeds City Council,Kippax and Methley,http://statistics.data.gov.uk/id/statistical-geography/E05001431,LIVE
16/07/2015,http://opendatacommunities.org/id/metropolitan-district-council/leeds,Leeds,http://id.esd.org.uk/subject/7691,Wireless Technology,Kippax,Westfield Lane,Kippax,Leeds,LS25 7LY,53.76758,-1.37098,Library,Leeds City Council,Kippax and Methley,http://statistics.data.gov.uk/id/statistical-geography/E05001431,LIVE
16/07/2015,http://opendatacommunities.org/id/metropolitan-district-council/leeds,Leeds,http://id.esd.org.uk/subject/7691,Wireless Technology,Kirkstall,Kirkstall Lane,Kirkstall,Leeds,LS5 3BE,53.81624,-1.60154,Leisure Centre,Leeds City Council,Kirkstall,http://statistics.data.gov.uk/id/statistical-geography/E05001432,LIVE
16/07/2015,http://opendatacommunities.org/id/metropolitan-district-council/leeds,Leeds,http://id.esd.org.uk/subject/7691,Wireless Technology,Leeds City Museum,Millenium Square ,,Leeds,LS2 8BH,53.8014,-1.54874,Museum,Leeds City Council,City and Hunslet,http://statistics.data.gov.uk/id/statistical-geography/E05001420,LIVE
16/07/2015,http://opendatacommunities.org/id/metropolitan-district-council/leeds,Leeds,http://id.esd.org.uk/subject/7691,Wireless Technology,Leeds Town Hall,The Headrow,,Leeds,LS1 3AD,53.8003,-1.5497,Community Centre,Leeds City Council,City and Hunslet,http://statistics.data.gov.uk/id/statistical-geography/E05001420,LIVE
16/07/2015,http://opendatacommunities.org/id/metropolitan-district-council/leeds,Leeds,http://id.esd.org.uk/subject/7691,Wireless Technology,Lineham Farm,Swan lane,Bramhope,Leeds,LS16 8AZ,53.88157,-1.57429,Activity Centre,Leeds City Council,Alwoodley,http://statistics.data.gov.uk/id/statistical-geography/E05001412,Unable to have wifi
16/07/2015,http://opendatacommunities.org/id/metropolitan-district-council/leeds,Leeds,http://id.esd.org.uk/subject/7691,Wireless Technology,Little London Children's Centre,169a Meanwood Road,Meanwood,Leeds,LS7 1SR,53.80861,-1.54016,Childrens Centre,Leeds City Council,Hyde Park and Woodhouse,http://statistics.data.gov.uk/id/statistical-geography/E05001429,LIVE
16/07/2015,http://opendatacommunities.org/id/metropolitan-district-council/leeds,Leeds,http://id.esd.org.uk/subject/7691,Wireless Technology,Little London Community Centre,Oatland Avenue,Little London,Leeds,LS7 1SP,53.80824,-1.54102,Community Centre,Leeds City Council,Hyde Park and Woodhouse,http://statistics.data.gov.uk/id/statistical-geography/E05001429,Unable to have wifi 
16/07/2015,http://opendatacommunities.org/id/metropolitan-district-council/leeds,Leeds,http://id.esd.org.uk/subject/7691,Wireless Technology,Lofthouse Children's Centre,Longthorpe Lane,Lofthouse,Wakefield,WF3 3PS,53.73216,-1.51092,Childrens Centre,Leeds City Council,Ardsley and Robin Hood,http://statistics.data.gov.uk/id/statistical-geography/E05001413,LIVE
16/07/2015,http://opendatacommunities.org/id/metropolitan-district-council/leeds,Leeds,http://id.esd.org.uk/subject/7691,Wireless Technology,Lotherton Hall,Aberford,Harewood,Leeds,LS25 3EB,53.81845,-1.31842,Museum,Leeds City Council,Harewood,http://statistics.data.gov.uk/id/statistical-geography/E05001426,LIVE
16/07/2015,http://opendatacommunities.org/id/metropolitan-district-council/leeds,Leeds,http://id.esd.org.uk/subject/7691,Wireless Technology,Meadowfield Children's Centre ,Halton Moore Avenue,Halton ,Leeds,LS9 0JY,53.79437,-1.49045,Childrens Centre,Leeds City Council,Temple Newsam,http://statistics.data.gov.uk/id/statistical-geography/E05001441,Unable to have wifi
16/07/2015,http://opendatacommunities.org/id/metropolitan-district-council/leeds,Leeds,http://id.esd.org.uk/subject/7691,Wireless Technology,Meanwood Children's Centre,Potternewton View,Meanwood,Leeds,LS7 2DW,53.82418,-1.54755,Childrens Centre,Leeds City Council,Chapel Allerton,http://statistics.data.gov.uk/id/statistical-geography/E05001419,LIVE
16/07/2015,http://opendatacommunities.org/id/metropolitan-district-council/leeds,Leeds,http://id.esd.org.uk/subject/7691,Wireless Technology,Methley,Saville Road,Methley,Leeds,LS26 9HS,53.73903,-1.39742,Library,Leeds City Council,Kippax and Methley,http://statistics.data.gov.uk/id/statistical-geography/E05001431,LIVE
16/07/2015,http://opendatacommunities.org/id/metropolitan-district-council/leeds,Leeds,http://id.esd.org.uk/subject/7691,Wireless Technology,Middleton,Ring Road,Middleton,Leeds,LS10 4AX,53.74721,-1.53752,Leisure Centre,Leeds City Council,Middleton Park,http://statistics.data.gov.uk/id/statistical-geography/E05001433,LIVE
16/07/2015,http://opendatacommunities.org/id/metropolitan-district-council/leeds,Leeds,http://id.esd.org.uk/subject/7691,Wireless Technology,Middleton,Saint Georges Centre,St Georges Road,Leeds,LS10 4UZ,53.74775,-1.53253,Library,Leeds City Council,Middleton Park,http://statistics.data.gov.uk/id/statistical-geography/E05001433,LIVE
16/07/2015,http://opendatacommunities.org/id/metropolitan-district-council/leeds,Leeds,http://id.esd.org.uk/subject/7691,Wireless Technology,Middleton Children's Centre Over 3's,Middleton Primary School,Middleton Park Avenue,Leeds,LS10 4HU,53.74293,-1.54776,Childrens Centre,Leeds City Council,Middleton Park,http://statistics.data.gov.uk/id/statistical-geography/E05001433,LIVE
16/07/2015,http://opendatacommunities.org/id/metropolitan-district-council/leeds,Leeds,http://id.esd.org.uk/subject/7691,Wireless Technology,Middleton Children's Centre Play & Learn,100 Middleton Park Avenue,Middleton,Leeds,LS10 4HY,53.7412,-1.54814,Childrens Centre,Leeds City Council,Middleton Park,http://statistics.data.gov.uk/id/statistical-geography/E05001433,LIVE
16/07/2015,http://opendatacommunities.org/id/metropolitan-district-council/leeds,Leeds,http://id.esd.org.uk/subject/7691,Wireless Technology,Millenium Square,Great George Street,,Leeds,LS2 3AD,53.8016,-1.54832,Open Air,Leeds City Council,City and Hunslet,http://statistics.data.gov.uk/id/statistical-geography/E05001420,LIVE
16/07/2015,http://opendatacommunities.org/id/metropolitan-district-council/leeds,Leeds,http://id.esd.org.uk/subject/7691,Wireless Technology,Moor Allerton,Moor Allerton Centre,Moor Allerton,Leeds,LS17 5NY,53.84576,-1.54968,Library,Leeds City Council,Alwoodley,http://statistics.data.gov.uk/id/statistical-geography/E05001412,LIVE
16/07/2015,http://opendatacommunities.org/id/metropolitan-district-council/leeds,Leeds,http://id.esd.org.uk/subject/7691,Wireless Technology,Morley,Queensway,Morley,Leeds,LS27 9LG,53.74624,-1.60595,Leisure Centre,Leeds City Council,Morley South,http://statistics.data.gov.uk/id/statistical-geography/E05001436,LIVE
16/07/2015,http://opendatacommunities.org/id/metropolitan-district-council/leeds,Leeds,http://id.esd.org.uk/subject/7691,Wireless Technology,Morley,Commercial Street,Morley,Leeds,LS27 8HZ,53.74669,-1.60118,Library,Leeds City Council,Morley South,http://statistics.data.gov.uk/id/statistical-geography/E05001436,LIVE
16/07/2015,http://opendatacommunities.org/id/metropolitan-district-council/leeds,Leeds,http://id.esd.org.uk/subject/7691,Wireless Technology,Morley,Morley Town Hall,Queen Street,Leeds,LS27 9DY,53.74565,-1.60202,One Stop Centre,Leeds City Council,Morley South,http://statistics.data.gov.uk/id/statistical-geography/E05001436,LIVE
16/07/2015,http://opendatacommunities.org/id/metropolitan-district-council/leeds,Leeds,http://id.esd.org.uk/subject/7691,Wireless Technology,Morley Town Hall  (4 rooms @),Queen Street,Morley,Leeds,LS27 9DY,53.74565,-1.60202,Community Centre,Leeds City Council,Morley South,http://statistics.data.gov.uk/id/statistical-geography/E05001436,LIVE
16/07/2015,http://opendatacommunities.org/id/metropolitan-district-council/leeds,Leeds,http://id.esd.org.uk/subject/7691,Wireless Technology,North Seacroft,"Unit 8, Seacroft Green Shopping Centre",Seacroft,Leeds,LS14 6JD,53.8224,-1.46073,One Stop Centre,Leeds City Council,Killingbeck and Seacroft,http://statistics.data.gov.uk/id/statistical-geography/E05001430,LIVE
16/07/2015,http://opendatacommunities.org/id/metropolitan-district-council/leeds,Leeds,http://id.esd.org.uk/subject/7691,Wireless Technology,Nowell Mount Centre,Nowell Mount,Harehills,Leeds,LS9 6JJ,53.80269,-1.50418,Community Centre,Leeds City Council,Burmantofts and Richmond Hill,http://statistics.data.gov.uk/id/statistical-geography/E05001417,LIVE
16/07/2015,http://opendatacommunities.org/id/metropolitan-district-council/leeds,Leeds,http://id.esd.org.uk/subject/7691,Wireless Technology,Oakwood,1 Oakwood Lane,Oakwood,Leeds,LS8 2PZ,53.82712,-1.50377,Library,Leeds City Council,Roundhay,http://statistics.data.gov.uk/id/statistical-geography/E05001440,LIVE
16/07/2015,http://opendatacommunities.org/id/metropolitan-district-council/leeds,Leeds,http://id.esd.org.uk/subject/7691,Wireless Technology,Osmondthorpe ,81a Wykebeck Mount,,Leeds,LS9 0JE,53.7957,-1.49102,One Stop Centre,Leeds City Council,Temple Newsam,http://statistics.data.gov.uk/id/statistical-geography/E05001441,LIVE
16/07/2015,http://opendatacommunities.org/id/metropolitan-district-council/leeds,Leeds,http://id.esd.org.uk/subject/7691,Wireless Technology,Osmondthorpe Children's Centre,129 Rookwood Road,Osmondthorpe,Leeds,LS9 0LX,53.79761,-1.49551,Childrens Centre,Leeds City Council,Burmantofts and Richmond Hill,http://statistics.data.gov.uk/id/statistical-geography/E05001417,LIVE
16/07/2015,http://opendatacommunities.org/id/metropolitan-district-council/leeds,Leeds,http://id.esd.org.uk/subject/7691,Wireless Technology,Otley,Nelson Street,Otley,Leeds,LS21 1EZ,53.90494,-1.69156,Library,Leeds City Council,Otley and Yeadon,http://statistics.data.gov.uk/id/statistical-geography/E05001437,LIVE
16/07/2015,http://opendatacommunities.org/id/metropolitan-district-council/leeds,Leeds,http://id.esd.org.uk/subject/7691,Wireless Technology,Otley,Nelson Street (Library Building) ,Otley,Leeds,LS21 1EZ,53.90494,-1.69156,One Stop Centre,Leeds City Council,Otley and Yeadon,http://statistics.data.gov.uk/id/statistical-geography/E05001437,LIVE
16/07/2015,http://opendatacommunities.org/id/metropolitan-district-council/leeds,Leeds,http://id.esd.org.uk/subject/7691,Wireless Technology,Otley Children's Centre,Cross Green Community Centre,Cross Green,Leeds,LS21 1HD,53.9061,-1.68944,Childrens Centre,Leeds City Council,Otley and Yeadon,http://statistics.data.gov.uk/id/statistical-geography/E05001437,LIVE
16/07/2015,http://opendatacommunities.org/id/metropolitan-district-council/leeds,Leeds,http://id.esd.org.uk/subject/7691,Wireless Technology,Parklands Children's Centre,Dufton Approach ,Seacroft,Leeds,LS14 6ED,53.81316,-1.46485,Childrens Centre,Leeds City Council,Killingbeck and Seacroft,http://statistics.data.gov.uk/id/statistical-geography/E05001430,Unable to have wifi
16/07/2015,http://opendatacommunities.org/id/metropolitan-district-council/leeds,Leeds,http://id.esd.org.uk/subject/7691,Wireless Technology,Prince Philip Centre,Scott Hall Avenue,Chapel Allerton,Leeds,LS7 2HJ,53.81876,-1.54254,Community Centre,Leeds City Council,Chapel Allerton,http://statistics.data.gov.uk/id/statistical-geography/E05001419,LIVE
16/07/2015,http://opendatacommunities.org/id/metropolitan-district-council/leeds,Leeds,http://id.esd.org.uk/subject/7691,Wireless Technology,Pudsey,Market Place,Pudsey,Leeds,LS28 7BE,53.79531,-1.66254,Leisure Centre,Leeds City Council,Pudsey,http://statistics.data.gov.uk/id/statistical-geography/E05001438,LIVE
16/07/2015,http://opendatacommunities.org/id/metropolitan-district-council/leeds,Leeds,http://id.esd.org.uk/subject/7691,Wireless Technology,Pudsey,Church Lane,Pudsey,Leeds,LS28 7TY,53.79576,-1.66388,Library,Leeds City Council,Pudsey,http://statistics.data.gov.uk/id/statistical-geography/E05001438,LIVE
16/07/2015,http://opendatacommunities.org/id/metropolitan-district-council/leeds,Leeds,http://id.esd.org.uk/subject/7691,Wireless Technology,Pudsey,Pudsey Town Hall,Robin Lane,Leeds,LS28 7BL,53.80723,-1.68136,One Stop Centre,Leeds City Council,Pudsey,http://statistics.data.gov.uk/id/statistical-geography/E05001438,LIVE
16/07/2015,http://opendatacommunities.org/id/metropolitan-district-council/leeds,Leeds,http://id.esd.org.uk/subject/7691,Wireless Technology,Pudsey Civic Hall,Dawson Corner,Pudsey,Leeds,LS28 5TA,53.80735,-1.67878,Civic Centre,Leeds City Council,Calverley and Farsley,http://statistics.data.gov.uk/id/statistical-geography/E05001418,LIVE
16/07/2015,http://opendatacommunities.org/id/metropolitan-district-council/leeds,Leeds,http://id.esd.org.uk/subject/7691,Wireless Technology,Pusdey,Market Place,Pudsey,Leeds,LS28 7BE,53.79527,-1.66235,Leisure Centre,Leeds City Council,Pudsey,http://statistics.data.gov.uk/id/statistical-geography/E05001438,LIVE
16/07/2015,http://opendatacommunities.org/id/metropolitan-district-council/leeds,Leeds,http://id.esd.org.uk/subject/7691,Wireless Technology,Quarry Mount over 3's Children's Centre,Pennington Street,Woodhouse,Leeds,LS6 2JP,53.81529,-1.55403,Childrens Centre,Leeds City Council,Hyde Park and Woodhouse,http://statistics.data.gov.uk/id/statistical-geography/E05001429,LIVE
16/07/2015,http://opendatacommunities.org/id/metropolitan-district-council/leeds,Leeds,http://id.esd.org.uk/subject/7691,Wireless Technology,Quarry Mount Under 3's Children's Centre,Pennington Street,Woodhouse,Leeds,LS6 2JP,53.81529,-1.55403,Childrens Centre,Leeds City Council,Hyde Park and Woodhouse,http://statistics.data.gov.uk/id/statistical-geography/E05001429,LIVE
16/07/2015,http://opendatacommunities.org/id/metropolitan-district-council/leeds,Leeds,http://id.esd.org.uk/subject/7691,Wireless Technology,Richmond Hill Children's Centre,Walter Crescent,Richmond Hill,Leeds,LS9 8NG,53.79394,-1.52289,Childrens Centre,Leeds City Council,Burmantofts and Richmond Hill,http://statistics.data.gov.uk/id/statistical-geography/E05001417,LIVE
16/07/2015,http://opendatacommunities.org/id/metropolitan-district-council/leeds,Leeds,http://id.esd.org.uk/subject/7691,Wireless Technology,Richmond Hill Community Centre,Long Close Lane,Richmond Hill,Leeds,LS9 8NP,53.79373,-1.52169,Community Centre,Leeds City Council,Burmantofts and Richmond Hill,http://statistics.data.gov.uk/id/statistical-geography/E05001417,LIVE
16/07/2015,http://opendatacommunities.org/id/metropolitan-district-council/leeds,Leeds,http://id.esd.org.uk/subject/7691,Wireless Technology,Rothwell,Wakefield Road,Oulton,Leeds,LS26 8EL,53.74379,-1.44942,Leisure Centre,Leeds City Council,Rothwell,http://statistics.data.gov.uk/id/statistical-geography/E05001439,LIVE
16/07/2015,http://opendatacommunities.org/id/metropolitan-district-council/leeds,Leeds,http://id.esd.org.uk/subject/7691,Wireless Technology,Rothwell,Marsh Street,Rothwell,Leeds,LS26 0AE,53.74714,-1.4789,Library,Leeds City Council,Rothwell,http://statistics.data.gov.uk/id/statistical-geography/E05001439,LIVE
16/07/2015,http://opendatacommunities.org/id/metropolitan-district-council/leeds,Leeds,http://id.esd.org.uk/subject/7691,Wireless Technology,Rothwell Children's Centre,Cornwall Crescent,Rothwell,Leeds,LS26 0RA,53.75348,-1.4868,Childrens Centre,Leeds City Council,Rothwell,http://statistics.data.gov.uk/id/statistical-geography/E05001439,LIVE
16/07/2015,http://opendatacommunities.org/id/metropolitan-district-council/leeds,Leeds,http://id.esd.org.uk/subject/7691,Wireless Technology,Salem Place Telephone Box,Salem Place ,,Leeds,LS10 1JW,53.79246,-1.54054,Blue Telephone Box,AQL,City and Hunslet,http://statistics.data.gov.uk/id/statistical-geography/E05001420,LIVE
16/07/2015,http://opendatacommunities.org/id/metropolitan-district-council/leeds,Leeds,http://id.esd.org.uk/subject/7691,Wireless Technology,Scholes,3 Station Road,Scholes,Leeds,LS15 4BJ,53.82535,-1.42934,Library,Leeds City Council,Harewood,http://statistics.data.gov.uk/id/statistical-geography/E05001426,LIVE
16/07/2015,http://opendatacommunities.org/id/metropolitan-district-council/leeds,Leeds,http://id.esd.org.uk/subject/7691,Wireless Technology,Scott-Hall,Scott Hall Road,Chapeltown,Leeds,LS7 3DT,53.82594,-1.54589,Leisure Centre,Leeds City Council,Chapel Allerton,http://statistics.data.gov.uk/id/statistical-geography/E05001419,LIVE
16/07/2015,http://opendatacommunities.org/id/metropolitan-district-council/leeds,Leeds,http://id.esd.org.uk/subject/7691,Wireless Technology,Seacroft,Seacroft Crescent,Seacroft,Leeds,LS14 6PA,53.82091,-1.46145,Library,Leeds City Council,Killingbeck and Seacroft,http://statistics.data.gov.uk/id/statistical-geography/E05001430,LIVE
16/07/2015,http://opendatacommunities.org/id/metropolitan-district-council/leeds,Leeds,http://id.esd.org.uk/subject/7691,Wireless Technology,Seacroft Children's Centre,South Parkway,Seacroft,Leeds,LS14 6EP,53.81508,-1.47105,Childrens Centre,Leeds City Council,Killingbeck and Seacroft,http://statistics.data.gov.uk/id/statistical-geography/E05001430,LIVE
16/07/2015,http://opendatacommunities.org/id/metropolitan-district-council/leeds,Leeds,http://id.esd.org.uk/subject/7691,Wireless Technology,Shepherds Lane Children's Centre,Shepherds Lane,Potternewton ,Leeds,LS8 5AN,53.81599,-1.52322,Childrens Centre,Leeds City Council,Gipton and Harehills,http://statistics.data.gov.uk/id/statistical-geography/E05001424,LIVE
16/07/2015,http://opendatacommunities.org/id/metropolitan-district-council/leeds,Leeds,http://id.esd.org.uk/subject/7691,Wireless Technology,South Pudsey Community Centre,Kent Road,Pudsey,Leeds,LS28 9BN,53.78962,-1.65281,Community Centre,Leeds City Council,Pudsey,http://statistics.data.gov.uk/id/statistical-geography/E05001438,LIVE
16/07/2015,http://opendatacommunities.org/id/metropolitan-district-council/leeds,Leeds,http://id.esd.org.uk/subject/7691,Wireless Technology,St George’s Centre,Saint Georges Road,Middleton,Leeds,LS10 4UZ,53.74775,-1.53253,One Stop Centre,Leeds City Council,Middleton Park,http://statistics.data.gov.uk/id/statistical-geography/E05001433,LIVE
16/07/2015,http://opendatacommunities.org/id/metropolitan-district-council/leeds,Leeds,http://id.esd.org.uk/subject/7691,Wireless Technology,Swarcliffe Children's Centre,Langbar Road,Swarcliffe,Leeds,LS14 5ER,53.82257,-1.44362,Childrens Centre,Leeds City Council,Cross Gates and Whinmoor,http://statistics.data.gov.uk/id/statistical-geography/E05001421,LIVE
16/07/2015,http://opendatacommunities.org/id/metropolitan-district-council/leeds,Leeds,http://id.esd.org.uk/subject/7691,Wireless Technology,Temple Newsam,Templenewsam Road,Temple Newsham,Leeds,LS15 0AE,53.78458,-1.45968,Museum,Leeds City Council,Temple Newsam,http://statistics.data.gov.uk/id/statistical-geography/E05001441,LIVE
16/07/2015,http://opendatacommunities.org/id/metropolitan-district-council/leeds,Leeds,http://id.esd.org.uk/subject/7691,Wireless Technology,The Compton Centre,Harehills Lane ,Harehills,Leeds,LS9 7BG,53.80908,-1.50968,One Stop Centre,Leeds City Council,Gipton and Harehills,http://statistics.data.gov.uk/id/statistical-geography/E05001424,LIVE
16/07/2015,http://opendatacommunities.org/id/metropolitan-district-council/leeds,Leeds,http://id.esd.org.uk/subject/7691,Wireless Technology,The Discovery Centre,Carlisle Road,,Leeds,LS10 1LB,53.7888,-1.53099,Museum,Leeds City Council,City and Hunslet,http://statistics.data.gov.uk/id/statistical-geography/E05001420,LIVE
16/07/2015,http://opendatacommunities.org/id/metropolitan-district-council/leeds,Leeds,http://id.esd.org.uk/subject/7691,Wireless Technology,The Headrow Telephone Box,The Headrow,,Leeds,LS1 6PT,53.79915,-1.5415,Blue Telephone Box,AQL,City and Hunslet,http://statistics.data.gov.uk/id/statistical-geography/E05001420,LIVE
16/07/2015,http://opendatacommunities.org/id/metropolitan-district-council/leeds,Leeds,http://id.esd.org.uk/subject/7691,Wireless Technology,The Reginald Centre,263 Chapeltown Road,Chapel Allerton,Leeds,LS7 3EX,53.81776,-1.5319,One Stop Centre,Leeds City Council,Chapel Allerton,http://statistics.data.gov.uk/id/statistical-geography/E05001419,LIVE
16/07/2015,http://opendatacommunities.org/id/metropolitan-district-council/leeds,Leeds,http://id.esd.org.uk/subject/7691,Wireless Technology,Thwaite Mills Watermill,Thwaite Lane,Sourton ,Leeds,LS10 1RP,53.77612,-1.50333,Museum,Leeds City Council,City and Hunslet,http://statistics.data.gov.uk/id/statistical-geography/E05001420,LIVE
16/07/2015,http://opendatacommunities.org/id/metropolitan-district-council/leeds,Leeds,http://id.esd.org.uk/subject/7691,Wireless Technology,Tree Tops (Shadwell Lane),Squirrel Way ,Moortown ,Leeds,LS17 8FQ,53.85063,-1.52287,Community Centre,Leeds City Council,Alwoodley,http://statistics.data.gov.uk/id/statistical-geography/E05001412,Unable to have wifi
16/07/2015,http://opendatacommunities.org/id/metropolitan-district-council/leeds,Leeds,http://id.esd.org.uk/subject/7691,Wireless Technology,Two Willows Children's Centre,Cardinal Square,Beeston,Leeds,LS11 8HS,53.7664,-1.57096,Childrens Centre,Leeds City Council,Beeston and Holbeck,http://statistics.data.gov.uk/id/statistical-geography/E05001415,LIVE
16/07/2015,http://opendatacommunities.org/id/metropolitan-district-council/leeds,Leeds,http://id.esd.org.uk/subject/7691,Wireless Technology,Westgate Telephone Box,The Headrow,,Leeds,LS1 2RA,53.79957,-1.55092,Blue Telephone Box,AQL,City and Hunslet,http://statistics.data.gov.uk/id/statistical-geography/E05001420,LIVE
16/07/2015,http://opendatacommunities.org/id/metropolitan-district-council/leeds,Leeds,http://id.esd.org.uk/subject/7691,Wireless Technology,Wetherby,Lodge Lane,Wetherby,Leeds,LS22 5FN,53.92558,-1.39087,Leisure Centre,Leeds City Council,Wetherby,http://statistics.data.gov.uk/id/statistical-geography/E05001443,LIVE
16/07/2015,http://opendatacommunities.org/id/metropolitan-district-council/leeds,Leeds,http://id.esd.org.uk/subject/7691,Wireless Technology,Wetherby,17 Westgate,Wetherby,Leeds,LS22 6LL,53.92865,-1.38754,Library,Leeds City Council,Wetherby,http://statistics.data.gov.uk/id/statistical-geography/E05001443,LIVE
16/07/2015,http://opendatacommunities.org/id/metropolitan-district-council/leeds,Leeds,http://id.esd.org.uk/subject/7691,Wireless Technology,Wetherby ,24 Westgate ,Wetherby,Leeds,LS22 6NL,53.92934,-1.38922,One Stop Centre,Leeds City Council,Wetherby,http://statistics.data.gov.uk/id/statistical-geography/E05001443,LIVE
16/07/2015,http://opendatacommunities.org/id/metropolitan-district-council/leeds,Leeds,http://id.esd.org.uk/subject/7691,Wireless Technology,Wetherby Children's Centre ,Wetherby High School,Wetherby,Leeds,LS22 6JS,53.92916,-1.38016,Childrens Centre,Leeds City Council,Wetherby,http://statistics.data.gov.uk/id/statistical-geography/E05001443,LIVE
16/07/2015,http://opendatacommunities.org/id/metropolitan-district-council/leeds,Leeds,http://id.esd.org.uk/subject/7691,Wireless Technology,Whinmoor,Naburn Approach,Whinmoor,Leeds,LS14 2DF,53.83681,-1.45483,Library,Leeds City Council,Cross Gates and Whinmoor,http://statistics.data.gov.uk/id/statistical-geography/E05001421,LIVE
16/07/2015,http://opendatacommunities.org/id/metropolitan-district-council/leeds,Leeds,http://id.esd.org.uk/subject/7691,Wireless Technology,Yeadon,Town Hall Square,Yeadon,Leeds,LS19 7PP,53.86605,-1.6844,Library,Leeds City Council,Otley and Yeadon,http://statistics.data.gov.uk/id/statistical-geography/E05001437,LIVE
16/07/2015,http://opendatacommunities.org/id/metropolitan-district-council/leeds,Leeds,http://id.esd.org.uk/subject/7691,Wireless Technology,Yeadon Town Hall,High Street,Yeadon,Leeds,LS19 7PP,53.86599,-1.68474,Community Centre,Leeds City Council,Otley and Yeadon,http://statistics.data.gov.uk/id/statistical-geography/E05001437,Unable to have wifi
